{
  "type": "FeatureCollection",
  "features": [
    {
      "type": "Feature",
      "properties": {
        "norad_id": 66814,
        "name": "STARLINK-35984",
        "group": "last-30-days",
        "lat": -36.01682564132792,
        "lon": 59.47888061002406,
        "alt_km": 417.62862717050666,
        "timestamp": "2025-12-23T07:45:08.116710+00:00",
        "meta_object_name": "STARLINK-35984",
        "meta_object_id": "2025-278Z",
        "meta_epoch": "2025-12-22T22:00:03.000096",
        "meta_mean_motion": 15.51610016,
        "meta_eccentricity": 0.00018328,
        "meta_inclination": 42.9995,
        "meta_ra_of_asc_node": 190.5809,
        "meta_arg_of_pericenter": 275.9138,
        "meta_mean_anomaly": 212.3128,
        "meta_ephemeris_type": 0,
        "meta_classification_type": "U",
        "meta_norad_cat_id": 66814,
        "meta_element_set_no": 999,
        "meta_rev_at_epoch": 468,
        "meta_bstar": -0.026310724,
        "meta_mean_motion_dot": -0.01432763,
        "meta_mean_motion_ddot": 0,
        "tle_line1": "1 66814U 25278Z   25356.91670139 -.01432763  00000+0 -26311-1 0  9997",
        "tle_line2": "2 66814  42.9995 190.5809 0001832 275.9138 212.3128 15.51610016  4689"
      },
      "geometry": {
        "type": "Point",
        "coordinates": [
          59.47888061002406,
          -36.01682564132792
        ]
      }
    },
    {
      "type": "Feature",
      "properties": {
        "norad_id": 66815,
        "name": "STARLINK-35985",
        "group": "last-30-days",
        "lat": -35.181064353268425,
        "lon": 57.363381905617686,
        "alt_km": 417.6587869380237,
        "timestamp": "2025-12-23T07:45:08.116720+00:00",
        "meta_object_name": "STARLINK-35985",
        "meta_object_id": "2025-278AA",
        "meta_epoch": "2025-12-22T22:00:03.000096",
        "meta_mean_motion": 15.51607171,
        "meta_eccentricity": 0.00018338,
        "meta_inclination": 42.9994,
        "meta_ra_of_asc_node": 190.5854,
        "meta_arg_of_pericenter": 278.205,
        "meta_mean_anomaly": 208.1074,
        "meta_ephemeris_type": 0,
        "meta_classification_type": "U",
        "meta_norad_cat_id": 66815,
        "meta_element_set_no": 999,
        "meta_rev_at_epoch": 468,
        "meta_bstar": -0.026269835,
        "meta_mean_motion_dot": -0.01430637,
        "meta_mean_motion_ddot": 0,
        "tle_line1": "1 66815U 25278AA  25356.91670139 -.01430637  00000+0 -26270-1 0  9990",
        "tle_line2": "2 66815  42.9994 190.5854 0001833 278.2050 208.1074 15.51607171  4680"
      },
      "geometry": {
        "type": "Point",
        "coordinates": [
          57.363381905617686,
          -35.181064353268425
        ]
      }
    },
    {
      "type": "Feature",
      "properties": {
        "norad_id": 66816,
        "name": "STARLINK-36098",
        "group": "last-30-days",
        "lat": -31.497110454352423,
        "lon": 49.34052050262596,
        "alt_km": 417.49515543442703,
        "timestamp": "2025-12-23T07:45:08.116730+00:00",
        "meta_object_name": "STARLINK-36098",
        "meta_object_id": "2025-278AB",
        "meta_epoch": "2025-12-22T22:00:03.000096",
        "meta_mean_motion": 15.51602199,
        "meta_eccentricity": 0.00017134,
        "meta_inclination": 42.9993,
        "meta_ra_of_asc_node": 190.605,
        "meta_arg_of_pericenter": 271.2629,
        "meta_mean_anomaly": 207.3794,
        "meta_ephemeris_type": 0,
        "meta_classification_type": "U",
        "meta_norad_cat_id": 66816,
        "meta_element_set_no": 999,
        "meta_rev_at_epoch": 443,
        "meta_bstar": -0.026044554,
        "meta_mean_motion_dot": -0.0141936,
        "meta_mean_motion_ddot": 0,
        "tle_line1": "1 66816U 25278AB  25356.91670139 -.01419360  00000+0 -26045-1 0  9991",
        "tle_line2": "2 66816  42.9993 190.6050 0001713 271.2629 207.3794 15.51602199  4439"
      },
      "geometry": {
        "type": "Point",
        "coordinates": [
          49.34052050262596,
          -31.497110454352423
        ]
      }
    },
    {
      "type": "Feature",
      "properties": {
        "norad_id": 66817,
        "name": "STARLINK-35995",
        "group": "last-30-days",
        "lat": -33.4038899856495,
        "lon": 53.266252879684785,
        "alt_km": 417.54261735702494,
        "timestamp": "2025-12-23T07:45:08.116741+00:00",
        "meta_object_name": "STARLINK-35995",
        "meta_object_id": "2025-278AC",
        "meta_epoch": "2025-12-22T22:00:03.000096",
        "meta_mean_motion": 15.51599877,
        "meta_eccentricity": 0.00017433,
        "meta_inclination": 42.9995,
        "meta_ra_of_asc_node": 190.5951,
        "meta_arg_of_pericenter": 271.786,
        "meta_mean_anomaly": 210.6914,
        "meta_ephemeris_type": 0,
        "meta_classification_type": "U",
        "meta_norad_cat_id": 66817,
        "meta_element_set_no": 999,
        "meta_rev_at_epoch": 459,
        "meta_bstar": -0.026009412,
        "meta_mean_motion_dot": -0.01417549,
        "meta_mean_motion_ddot": 0,
        "tle_line1": "1 66817U 25278AC  25356.91670139 -.01417549  00000+0 -26009-1 0  9999",
        "tle_line2": "2 66817  42.9995 190.5951 0001743 271.7860 210.6914 15.51599877  4592"
      },
      "geometry": {
        "type": "Point",
        "coordinates": [
          53.266252879684785,
          -33.4038899856495
        ]
      }
    },
    {
      "type": "Feature",
      "properties": {
        "norad_id": 66818,
        "name": "STARLINK-35994",
        "group": "last-30-days",
        "lat": -32.46531644788781,
        "lon": 51.28313229708823,
        "alt_km": 417.5226291206436,
        "timestamp": "2025-12-23T07:45:08.116751+00:00",
        "meta_object_name": "STARLINK-35994",
        "meta_object_id": "2025-278AD",
        "meta_epoch": "2025-12-22T22:00:03.000096",
        "meta_mean_motion": 15.51611376,
        "meta_eccentricity": 0.0001879,
        "meta_inclination": 42.999,
        "meta_ra_of_asc_node": 190.6009,
        "meta_arg_of_pericenter": 274.8909,
        "meta_mean_anomaly": 205.6678,
        "meta_ephemeris_type": 0,
        "meta_classification_type": "U",
        "meta_norad_cat_id": 66818,
        "meta_element_set_no": 999,
        "meta_rev_at_epoch": 459,
        "meta_bstar": -0.026363799,
        "meta_mean_motion_dot": -0.01435434,
        "meta_mean_motion_ddot": 0,
        "tle_line1": "1 66818U 25278AD  25356.91670139 -.01435434  00000+0 -26364-1 0  9997",
        "tle_line2": "2 66818  42.9990 190.6009 0001879 274.8909 205.6678 15.51611376  4591"
      },
      "geometry": {
        "type": "Point",
        "coordinates": [
          51.28313229708823,
          -32.46531644788781
        ]
      }
    },
    {
      "type": "Feature",
      "properties": {
        "norad_id": 66819,
        "name": "STARLINK-35989",
        "group": "last-30-days",
        "lat": -34.30985391580237,
        "lon": 55.29379766703534,
        "alt_km": 417.6242309878435,
        "timestamp": "2025-12-23T07:45:08.116761+00:00",
        "meta_object_name": "STARLINK-35989",
        "meta_object_id": "2025-278AE",
        "meta_epoch": "2025-12-22T22:00:03.000096",
        "meta_mean_motion": 15.51613357,
        "meta_eccentricity": 0.00018447,
        "meta_inclination": 42.9994,
        "meta_ra_of_asc_node": 190.5903,
        "meta_arg_of_pericenter": 277.3503,
        "meta_mean_anomaly": 207.0418,
        "meta_ephemeris_type": 0,
        "meta_classification_type": "U",
        "meta_norad_cat_id": 66819,
        "meta_element_set_no": 999,
        "meta_rev_at_epoch": 459,
        "meta_bstar": -0.026410054,
        "meta_mean_motion_dot": -0.01437765,
        "meta_mean_motion_ddot": 0,
        "tle_line1": "1 66819U 25278AE  25356.91670139 -.01437765  00000+0 -26410-1 0  9999",
        "tle_line2": "2 66819  42.9994 190.5903 0001844 277.3503 207.0418 15.51613357  4597"
      },
      "geometry": {
        "type": "Point",
        "coordinates": [
          55.29379766703534,
          -34.30985391580237
        ]
      }
    },
    {
      "type": "Feature",
      "properties": {
        "norad_id": 66820,
        "name": "KOMPSAT-7",
        "group": "last-30-days",
        "lat": -49.811989264563294,
        "lon": 113.85481069141098,
        "alt_km": 564.070714284032,
        "timestamp": "2025-12-23T07:45:08.116773+00:00",
        "meta_object_name": "KOMPSAT-7",
        "meta_object_id": "2025-279A",
        "meta_epoch": "2025-12-22T19:31:35.003712",
        "meta_mean_motion": 15.00657999,
        "meta_eccentricity": 0.0011114,
        "meta_inclination": 97.6453,
        "meta_ra_of_asc_node": 302.5039,
        "meta_arg_of_pericenter": 229.8649,
        "meta_mean_anomaly": 130.1602,
        "meta_ephemeris_type": 0,
        "meta_classification_type": "U",
        "meta_norad_cat_id": 66820,
        "meta_element_set_no": 999,
        "meta_rev_at_epoch": 316,
        "meta_bstar": 0.00023698588,
        "meta_mean_motion_dot": 2.942e-05,
        "meta_mean_motion_ddot": 0,
        "tle_line1": "1 66820U 25279A   25356.81359958  .00002942  00000+0  23699-3 0  9994",
        "tle_line2": "2 66820  97.6453 302.5039 0011114 229.8649 130.1602 15.00657999  3162"
      },
      "geometry": {
        "type": "Point",
        "coordinates": [
          113.85481069141098,
          -49.811989264563294
        ]
      }
    }
  ]
}